GLOBALSTAR M023         
1 25621U 99004A   24280.00710713  .00000031  00000+0  75190-3 0  9991
2 25621  52.0094 107.4145 0009181 287.3733 238.7257 12.62477862183711
GLOBALSTAR M040         
1 25622U 99004B   24280.04160373 -.00000041  00000+0  35291-3 0  9997
2 25622  51.9896 111.0842 0000989 134.0044  33.0099 12.61985724183467
GLOBALSTAR M036         
1 25623U 99004C   24279.90533947 -.00000174  00000+0 -13337-2 0  9996
2 25623  51.9966 190.5426 0010311 287.7308 165.9864 11.86578265148791
GLOBALSTAR M038         
1 25624U 99004D   24280.50223184 -.00000054  00000+0  33977-3 0  9993
2 25624  51.9961  82.1436 0001130 222.0182 176.1979 12.32509767171054
GLOBALSTAR M022         
1 25649U 99012A   24279.87809310 -.00000085  00000+0  23747-4 0  9997
2 25649  52.0028 262.2258 0002727  29.1482 359.8743 12.02488973145784
GLOBALSTAR M041         
1 25650U 99012B   24279.96052448 -.00000114  00000+0 -36702-3 0  9999
2 25650  52.0001 135.7007 0002414 164.1376 195.9537 11.96658481148090
GLOBALSTAR M046         
1 25651U 99012C   24279.87062617 -.00000132  00000+0 -47896-3 0  9995
2 25651  52.0042 221.6626 0002596  94.0539 315.4737 12.09397695152897
GLOBALSTAR M037         
1 25652U 99012D   24280.17790624 -.00000038  00000+0  36661-3 0  9999
2 25652  51.9991 237.6056 0002151 356.8624  16.5663 12.62420221179240
